ONEWEB-0435             
1 51632U 22012L   24218.23942734  .00000613  00000+0  17210-2 0  9997
2 51632  87.8979 171.7223 0001806  70.6866 289.4456 13.10376158121410
ONEWEB-0436             
1 51633U 22012M   24218.21674195 -.00000251  00000+0 -68084-3 0  9995
2 51633  87.9186 141.4613 0001884  71.5218 288.6119 13.17648862125294
ONEWEB-0438             
1 51634U 22012N   24218.37552577 -.00000398  00000+0 -11751-2 0  9992
2 51634  87.8979 171.6960 0002281  79.6148 280.5236 13.10375545121472
ONEWEB-0439             
1 51635U 22012P   24217.92070727 -.00000006  00000+0 -54175-4 0  9990
2 51635  87.8980 171.7712 0002028  78.6146 281.5209 13.10375709120109
ONEWEB-0442             
1 51636U 22012Q   24217.82980577  .00000003  00000+0 -24421-4 0  9990
2 51636  87.9190 141.5748 0002665  89.7620 270.3817 13.17649092123947
ONEWEB-0443             
1 51637U 22012R   24217.84838291  .00000077  00000+0  16644-3 0  9995
2 51637  87.9193 141.5795 0002063  64.0416 296.0928 13.17649377123993
ONEWEB-0444             
1 51638U 22012S   24218.13981016 -.00000493  00000+0 -14488-2 0  9990
2 51638  87.8974 171.7473 0001968  74.9229 285.2116 13.10375952121437
ONEWEB-0445             
1 51639U 22012T   24217.85598144  .00000552  00000+0  15435-2 0  9992
2 51639  87.8968 171.7730 0002184  88.0593 272.0785 13.10375641120113
